University,Letters,Chapter,mailing address,chapter address,,contact name,email,phone,status
USC,Chi Phi,Chi Phi,"Name	Zeta Beta Of Alpha Tau Omega And Building Corporation
C/O Gregory Castle
Address	10960 Wilshire Blvd #1510
Los Angeles, CA 90024","707 W 28th St, Los Angeles, CA 90007",,andrew newsom,acnewsom@usc.edu,,mtsn
USC,Phi Kappa Tau,Phi Kappa Tau,"Name	Fraternity Housing Corporation
C/O Larry S Wiese
Address	PO Box 1865
Lexington, VA 24450","2715 Portland St, Los Angeles, CA 90007",,NA,uscpkt@gmail.com,,mtsn
SJSU,Alpha Epsilon Pi,Alpha Epsilon Pi,NA,NA,,,,,
SJSU,Alpha Sigma Phi,Alpha Sigma Phi,NA,"46741091, San Jose, CA 95112",,,,,
SJSU,Alpha Tau Omega,Alpha Tau Omega,"Name	Sjsu Ato Real Estate
C/O Kevin Wilkinson
Address	569 Dartmouth Ave
San Carlos, CA 94070","202 S 11th St, San Jose, CA 95112",,,,,
SJSU,Beta Theta Pi,Beta Theta Pi,"Name	Mclean Beresford W
Address	147 Race St
San Jose, CA 95126","365 E San Fernando St, San Jose, CA 95112",,,,,
SJSU,Delta Sigma Phi,Delta Sigma Phi,"Name	Current Capital LP
Address	160 W Santa Clara St #900
San Jose, CA 9511","189 S 11th St, San Jose, CA 95112",,,,,
SJSU,Delta Upsilon,Delta Upsilon,"Name	San Jose Delta Upsilon Corp
C/O Jeff Pesta - Treasurer
Address	6920 Santa Teresa Blvd #103
San Jose, CA 95119","201 S 11th St, San Jose, CA 95112",,,,,
SJSU,Kappa Sigma,Kappa Sigma,"Name	Theta Iota Chapter Of Kappa Sigma Inc
Address	P O Box 12
Los Gatos, CA 95031","168 S 11th St, San Jose, CA 95112",,,,,
SJSU,Pi Kappa Alpha,Pi Kappa Alpha,NA,NA,,,,,
SJSU,Pi Kappa Phi,Pi Kappa Phi,NA,NA,,,,,
SJSU,Sigma Alpha Epsilon,Sigma Alpha Epsilon,"Name	Robinson Lois K Trustee
Address	18707 Graystone Ln
San Jose, CA 95120","282 S 10th St, San Jose, CA 95112",,,,,
SJSU,Sigma Chi,Sigma Chi,"Name	Cowan Bell Scholastic Foundation Thomas
Address	PO Box 5476
San Jose, CA 95150","284 S 10th St, San Jose, CA 95112",,,,,
SJSU,Sigma Nu,Sigma Nu,"Name	Zeta Iota Chapter Of Sigma Nu Fraternity
C/O Stephen V Gaffaney
Address	2155 Dry Creek Rd
San Jose, CA 95124","155 s 11th st, san jose ca 95112",,,,,
SJSU,Theta Chi,Theta Chi,NA,NA,,"Micah Harrel, Tim",,"480-640-0774, 925-9279668",visiting October 8th 2019
CAL,Alpha Delta Phi,Alpha Delta Phi,"Name	Alpha Delta Phi Building Co
C/O Piedmont Systems
Address	3871 Piedmont Ave
Oakland, CA 94611","2422 Prospect St, Berkeley, CA 94704",,,,,
CAL,Alpha Epsilon Pi,Alpha Epsilon Pi,"Name	Chiber Housing Corporation
C/O Andrew S Borans
Address	8815 Wesleyan Rd
Indianapolis, IN 46268","2430 Piedmont Ave, Berkeley, CA 94704",,,,,
CAL,Alpha Gamma Omega,Alpha Gamma Omega,"Name	Alpha Gamma Omega Assn
C/O David Nielsen
Address	301 Shady Valley Ct
San Ramon, CA 94582","2713 Haste St, Berkeley, CA 94704",,,,,
CAL,Alpha Kappa Lambda,Alpha Kappa Lambda,"Name	Momtchev Stanislav P & Kaloyanova Elena K Trs
Address	2630 Cedar St
Berkeley, CA 94708","2710 Durant Ave, Berkeley, CA 94704",,,,,
CAL,Alpha Sigma Phi,Alpha Sigma Phi,"Name	California Alpha Sigma Phi Inc
C/O Robert Riegg
Address	2498 Piedmont Ave
Berkeley, CA 94704","2498 Piedmont Ave, Berkeley, CA 94704",,,,,
CAL,Alpha Tau Omega,Alpha Tau Omega,"Name	Alpha Tau Omega Hse Asn
C/O Edward Hulsy
Address	268 Bush St 3143
San Francisco, CA 9410","2327 Warring St, Berkeley, CA 94704",,,,,
CAL,Chi Phi,Chi Phi,"Name	Lambda Chapter Chi Phi
C/O B Finley
Address	662 Calmar Ave
Oakland, CA 94610","2722 Durant Ave, Berkeley, CA 94704",,,,,
CAL,Chi Psi,Chi Psi,"Name	Housing Corp For Ca Gamma Chap Of Phi Kappa Psi
C/O S & T Fraternity Mgt
Address	PO Box 6688
Moraga, CA 94570","2424 Warring St, Berkeley, CA 94704",,,,,
CAL,Delta Chi,Delta Chi,"Name	Abracadabra House Association
C/O Stephen D Copper
Address	PO Box 620531
Littleton, CO 80162","2721 Channing Way, Berkeley, CA 94704",,,,,
CAL,Delta Kappa Epsilon,Delta Kappa Epsilon,NA,"Piedmont Ave, Berkeley, CA 94704",,,,,
CAL,Delta Sigma Phi,Delta Sigma Phi,"Name	Pi Alpha Phi Alum Assn
C/O Cliff Lin
Address	256 Calle La Mesa
Moraga, CA 94556","2534 Warring St, Berkeley, CA 94704",,,,,
CAL,Delta Upsilon,Delta Upsilon,"Name	Delta Upsilon House Asn
C/O Charles L Kavanagh
Address	708 Carolan Ave
Burlingame, CA 94010","2425 Warring St, Berkeley, CA 94704",,,,,
CAL,lambda chi alpha,lambda chi alpha,"Name	Mu Zeta Of Lambda Chi Alpha
C/O Smith & Taylor Frat
Address	256 Calle La Mesa 100
Moraga, CA 94556","2421 Prospect St, Berkeley, CA 94704",,,,,
CAL,lamba phi epsilon,lamba phi epsilon,NA,NA,,,,,
CAL,Kappa Alpha Order,Kappa Alpha Order,"Name	Alpha Xi Building Assn
C/O Ryan Ledwith
Address	96 Holmes Ave
Darien, CT 06820","2425 Piedmont Ave, Berkeley, CA 94704",,,,,
CAL,Kappa Delta Rho,Kappa Delta Rho,"Name	Lambda Of Kappa Delta Rho Inc
C/O Murray Stok & C. Cpa
Address	235 Montgomery St 460
San Francisco, CA 94104","2739 Channing Way, Berkeley, CA 94704",,,,,
CAL,Phi Delta Theta,Phi Delta Theta,"Name	California Alpha Association
Address	PO Box 4338
Berkeley, CA 94704","2726 Channing Way, Berkeley, CA 94704",,,,,
CAL,Phi Gamma Delta,Phi Gamma Delta,NA,"Channing Way, Berkeley, CA 94704",,,,,
CAL,Phi Kappa Psi,Phi Kappa Psi,"Name	Housing Corp For Ca Gamma Chap Of Phi Kappa Psi
C/O S & T Fraternity Mgt
Address	PO Box 6688
Moraga, CA 94570","2424 Warring St, Berkeley, CA 94704",,,,,
CAL,Phi Kappa Tau,Phi Kappa Tau,"Name	Phi Kappa Tau Of Berk
C/O Mr. Todd Morgan
Address	PO Box 12688 Lks-16
Oakland, CA 94604","2335 Piedmont Ave, Berkeley, CA 94704",,,,,
CAL,Pi Kappa Alpha,Pi Kappa Alpha,"Name	Alpha Sigma Building Association
C/O S & T Fraternity Mgm
Address	256 Calle La Mesa
Moraga, CA 94556","2324 Piedmont Ave, Berkeley, CA 94704",,,,,
CAL,Pi Kappa Phi,Pi Kappa Phi,"Name	Pi Kappa Phi Alumni Association
C/O Smith & Taylor
Address	256 Calle La Mesa 100
Moraga, CA 94556","2908 Channing Way, Berkeley, CA 94704",,,,,
CAL,Pi Lambda Phi,Pi Lambda Phi,"Name	Pi Lambda Phi Alumni
C/O Jeff Baker
Address	1246 Mason St
San Francisco, CA 94108","University of California, 2727 Channing Way, Berkeley, CA 94704",,,,,
CAL,Sigma Alpha Epsilon,Sigma Alpha Epsilon,NA,"2722 Bancroft Way, Berkeley, CA 94704",https://www.bostonprivate.com/,,,,
CAL,Sigma Alpha Mu,Sigma Alpha Mu,"Name	Sigma Sigma Chapter Sigma Alpha Mu Housing Corp
C/O Sam Property Mgt
Address	8701 Founders Rd
Indianapolis, IN 46268","2714 Durant Ave, Berkeley, CA 94704",,,,,
CAL,Sigma Chi,Sigma Chi,"Name	Alpha Beta Hall
C/O Jeff Bordalampe
Address	357 Cliffside Dr
Danville, CA 94526","2345 College Ave, Berkeley, CA 94704",,,,,
CAL,Sigma Nu,Sigma Nu,"Name	Sigma Nu Bldg Assn
C/O Mason S Brutschy
Address	PO Box 755
Menlo Park, CA 94026","2710 Bancroft Way, Berkeley, CA 94704",,,,,
CAL,Sigma Phi Epsilon,Sigma Phi Epsilon,"Name	Beta Theta Pi Omega House Corporation
Address	183 St Germain Ave
San Francisco, CA 94114","2728 Channing Way, Berkeley, CA 94704",,,,,
CAL,Sigma Pi,Sigma Pi,"Name	Iota Building Company Of The Sigma Pi Fraternity
C/O S&T Fraternity Mgmt
Address	P.o. Box 6688
Moraga, CA 94570","2434 Warring St, Berkeley, CA 94704",,,,,
CAL,Tau Kappa Epsilon,Tau Kappa Epsilon,"Name	Nu Of Tau Kappa Epsilon Inc
C/O S&T Fraternity Manag
Address	PO Box 6688
Moraga, CA 94570","2725 Channing Way, Berkeley, CA 94704",,,,,
CAL,Theta Chi,Theta Chi,"Name	Mu Chapter Association
Address	3000 San Jose Ave
Alameda, CA 94501","2499 Piedmont Ave, Berkeley, CA 94704",,,,,
CAL,Theta Delta Chi,Theta Delta Chi,"Name	Delta Deuteron Bldg Asn
C/O Martin Smith
Address	256 Calle La Mesamoraga 100
Moraga, CA 94556","2647 Durant Ave, Berkeley, CA 94704",,,,,
CAL,Zeta Psi,Zeta Psi,"Name	Zeta Psi Alumni Association
C/O Philip S Boone Jr
Address	2728 Bancroft Way
Berkeley, CA 94704","2728 Bancroft Way, Berkeley, CA 94704",,,,,
UW,,Acacia,,,,,,,
UW,,Alpha Sigma Phi,,,,,,,
UW,,Alpha Delta Phi,,,,,,,
UW,,Alpha Tau Omega,,,,,,,
UW,,,,,,,,,
UW,,Beta Theta Pi,,,,,,,
UW,,Chi Psi,,,,,,,
UW,,Delta Tau Delta,,,,,,,
UW,,Kappa Alpha Order,,,,,,,
UW,,Kappa Sigma,,,,,,,
UW,,Lambda Chi Alpha,,,,,,,
UW,,Phi Delta Theta,,,,,,,
UW,,Phi Gamma Delta,,,,,,,
UW,,Phi Kappa Psi,,,,,,,
UW,,Phi Kappa Sigma,,,,,,,
UW,,Phi Kappa Tau,,,,,,,
UW,,Pi Kappa Alpha,,,,,,,
UW,,Pi Kappa Phi,,,,,,,
UW,,Psi Upsilon,,,,,,,
UW,,Sigma Alpha Epsilon,,,,,,,
UW,,Sigma Chi,,,,,,,
UW,,Sigma Nu,,,,,,,
UW,,Sigma Phi Epsilon,,,,,,,
UW,,Tau Kappa Epsilon,,,,,,,
UW,,Theta Chi,,,,,,,
UW,,Theta Delta Chi,,,,,,,
UW,,Theta Xi,,,,,,,
UW,,Zeta Beta Tau,,,,,,,
UW,,Zeta Psi,,,,,,,
UT,,Alpha Epsilon Pi,,,,,,,
UT,,Beta Theta Pi,,,,,,,
UT,,Delta Kappa Epsilon,,,,,,,
UT,,Delta Sigma Phi,,,,,,,
UT,,Delta Tau Delta,,,,,,,
UT,,Delta Upsilon,,,,,,,
UT,,Kappa Alpha Order,,,,,,,
UT,,Kappa Sigma,,,,,,,
UT,,Lambda Chi Alpha,,,,,,,
UT,,Phi Delta Theta,,,,,,,
UT,,Phi Gamma Delta,,,,,,,
UT,,Phi Kappa Psi,,,,,,,
UT,,Phi Kappa Sigma,,,,,,,
UT,,Phi Kappa Tau,,,,,,,
UT,,Phi Kappa Theta,,,,,,,
UT,,Pi Kappa Alpha,,,,,,,
UT,,Pi Kappa Phi,,,,,,,
UT,,Sigma Alpha Mu,,,,,,,
UT,,Sigma Chi,,,,,,,
UT,,Sigma Phi Epsilon,,,,,,,
UT,,Sigma Pi,,,,,,,
UT,,Tau Kappa Epsilon,,,,,,,
UT,,Theta Chi,,,,,,,
UT,,Zeta Psi,,,,,,,
UT,,Zeta Beta Tau,,,,,,,